postal_code,lat,lng,location
01001,42.849914208,-2.6721449999999,"Vitoria, Álava, País Vasco, ESP"
01002,42.852705,-2.659999182,"Vitoria, Álava, País Vasco, ESP"
01003,42.846005,-2.648959449,"Vitoria, Álava, País Vasco, ESP"
01004,42.844683371,-2.6674399999999,"Vitoria, Álava, País Vasco, ESP"
01005,42.84358,-2.6720661589999,"Vitoria, Álava, País Vasco, ESP"
01006,42.831317264,-2.6607099999999,"Vitoria, Álava, País Vasco, ESP"
01007,42.837555,-2.6880962829999,"Vitoria, Álava, País Vasco, ESP"
01008,42.846925,-2.6859195869999,"Vitoria, Álava, País Vasco, ESP"
01009,42.854335,-2.685996969,"Vitoria, Álava, País Vasco, ESP"
01010,42.8607,-2.6980886499999,"Vitoria, Álava, País Vasco, ESP"
01012,42.855028422,-2.677315,"Vitoria, Álava, País Vasco, ESP"
01013,42.866625,-2.6571664259999,"Vitoria, Álava, País Vasco, ESP"
01015,42.840776404,-2.72941,"Vitoria, Álava, País Vasco, ESP"
01100,42.883864501,-2.6683684999999,"Vitoria, Álava, País Vasco, ESP"
01110,42.674258165,-2.359075,"Campezo, Álava, País Vasco, ESP"
01117,42.752385,-2.3208303709999,"Valle de Arana, Álava, País Vasco, ESP"
01118,42.669037494,-2.5417399999999,"Condado de Treviño, Burgos, Castilla y León, ESP"
01120,42.73539,-2.442420549,"Arraia-Maeztu, Álava, País Vasco, ESP"
01128,42.716915,-2.4007622789999,"Campezo, Álava, País Vasco, ESP"
01129,42.75583,-2.4262238429999,"Arraia-Maeztu, Álava, País Vasco, ESP"
01130,42.95943,-2.8125956119999,"Zuia, Álava, País Vasco, ESP"
01138,42.965607636,-2.732905,"Zigoitia, Álava, País Vasco, ESP"
01139,42.970678601,-2.8338899999999,"Zuia, Álava, País Vasco, ESP"
01160,43.052631304,-2.564475,"Aramaio, Álava, País Vasco, ESP"
01165,43.029737086,-2.601085,"Aramaio, Álava, País Vasco, ESP"
01169,43.056275,-2.5589914989999,"Aramaio, Álava, País Vasco, ESP"
01170,43.006799102,-2.666608547,"Legutio, Álava, País Vasco, ESP"
01191,42.88298,-2.8076927709999,"Vitoria, Álava, País Vasco, ESP"
01192,42.8379,-2.543134579,"Elburgo, Álava, País Vasco, ESP"
01193,42.834236026,-2.59869,"Vitoria, Álava, País Vasco, ESP"
01194,42.800565,-2.6527454299999,"Vitoria, Álava, País Vasco, ESP"
01195,42.82554,-2.7390234019999,"Vitoria, Álava, País Vasco, ESP"
01196,42.895825,-2.712507678,"Vitoria, Álava, País Vasco, ESP"
01200,42.85447,-2.397590239,"Salvatierra, Álava, País Vasco, ESP"
01206,42.909968797,-2.489995,"Barrundia, Álava, País Vasco, ESP"
01207,42.82864,-2.37280671,"Salvatierra, Álava, País Vasco, ESP"
01208,42.909355,-2.395283686,"Asparrena, Álava, País Vasco, ESP"
01211,42.65639,-2.740544078,"Peñacerrada, Álava, País Vasco, ESP"
01212,42.639965,-2.7327790599999,"Peñacerrada, Álava, País Vasco, ESP"
01213,42.738745,-2.9768288559999,"Lantarón, Álava, País Vasco, ESP"
01216,42.70363,-2.60056488,"Bernedo, Álava, País Vasco, ESP"
01220,42.724605,-2.860440765,"Armiñón, Álava, País Vasco, ESP"
01230,42.82553,-2.837508666,"Iruña de Oca, Álava, País Vasco, ESP"
01240,42.844577535,-2.4988299999999,"Alegría, Álava, País Vasco, ESP"
01250,42.903368576,-2.316455,"Asparrena, Álava, País Vasco, ESP"
01260,42.871706106,-2.2674949999999,"Asparrena, Álava, País Vasco, ESP"
01300,42.527645,-2.570007238,"Laguardia, Álava, País Vasco, ESP"
01306,42.495415,-2.569640799,"Lapuebla de Labarca, Álava, País Vasco, ESP"
01307,42.551416969,-2.6725299999999,"Villabuena de Álava, Álava, País Vasco, ESP"
01308,42.564350027,-2.5039399999999,"Lanciego, Álava, País Vasco, ESP"
01309,42.56787,-2.621029403,"Leza, Álava, País Vasco, ESP"
01320,42.54755,-2.421588352,"Oyón, Álava, País Vasco, ESP"
01321,42.500307303,-2.513639896,"Laguardia, Álava, País Vasco, ESP"
01322,42.556473988,-2.466625,"Yécora, Álava, País Vasco, ESP"
01330,42.605474483,-2.811585,"Labastida, Álava, País Vasco, ESP"
01340,42.506705,-2.623320889,"Elciego, Álava, País Vasco, ESP"
01400,43.142495,-2.9767175709999,"Llodio, Álava, País Vasco, ESP"
01408,43.095285,-2.999327883,"Ayala, Álava, País Vasco, ESP"
01409,43.17579,-2.9996417859999,"Okondo, Álava, País Vasco, ESP"
01420,42.7752998,-2.9259999999999,"Ribera Alta, Álava, País Vasco, ESP"
01423,42.78897,-3.072049482,"Valdegovía, Álava, País Vasco, ESP"
01426,42.869395,-3.2080591619999,"Valdegovía, Álava, País Vasco, ESP"
01427,42.848805,-3.1688384,"Jurisdicción de San Zadornil, Burgos, Castilla y León, ESP"
01428,42.837882509,-2.9272999999999,"Ribera Alta, Álava, País Vasco, ESP"
01430,42.8624485,-2.884942984,"Cuartango, Álava, País Vasco, ESP"
01439,42.8861,-2.927879961,"Cuartango, Álava, País Vasco, ESP"
01440,42.941241061,-2.890035,"Urkabustaiz, Álava, País Vasco, ESP"
01449,42.974005,-2.9223750109999,"Urkabustaiz, Álava, País Vasco, ESP"
01450,43.036875,-2.8961026179999,"Amurrio, Álava, País Vasco, ESP"
01468,43.021205,-3.018235379,"Amurrio, Álava, País Vasco, ESP"
01470,43.06216,-2.978489032,"Amurrio, Álava, País Vasco, ESP"
01474,43.129785,-3.141723111,"Artziniega, Álava, País Vasco, ESP"
01476,43.081543259,-3.0377549999999,"Ayala, Álava, País Vasco, ESP"
01477,43.07527,-3.0938525899999,"Ayala, Álava, País Vasco, ESP"
01478,43.092383807,-3.115515,"Ayala, Álava, País Vasco, ESP"
01479,43.043215,-3.085852213,"Ayala, Álava, País Vasco, ESP"
01510,42.915255692,-2.6444949999999,"Vitoria, Álava, País Vasco, ESP"
01520,42.919015,-2.6075269749999,"Arrazua-Ubarrundia, Álava, País Vasco, ESP"
02001,38.997226205,-1.852365,"Albacete, Albacete, Castilla-La Mancha, ESP"
02002,38.988425971,-1.85345,"Albacete, Albacete, Castilla-La Mancha, ESP"
02003,38.988505,-1.860010631,"Albacete, Albacete, Castilla-La Mancha, ESP"
02004,38.992165,-1.8658965119999,"Albacete, Albacete, Castilla-La Mancha, ESP"
02005,39.00524,-1.868614641,"Albacete, Albacete, Castilla-La Mancha, ESP"
02006,38.978820234,-1.875305,"Albacete, Albacete, Castilla-La Mancha, ESP"
02007,39.029205467,-1.8703928419999,"Albacete, Albacete, Castilla-La Mancha, ESP"
02008,38.993775369,-1.829555,"Albacete, Albacete, Castilla-La Mancha, ESP"
02049,38.968414649,-1.923355,"Albacete, Albacete, Castilla-La Mancha, ESP"
02100,39.231255,-1.9474572,"Tarazona de la Mancha, Albacete, Castilla-La Mancha, ESP"
02110,39.121225,-2.0136138149999,"La Gineta, Albacete, Castilla-La Mancha, ESP"
02120,38.703397581,-1.9950049999999,"Peñas de San Pedro, Albacete, Castilla-La Mancha, ESP"
02124,38.633255,-2.021934476,"Alcadozo, Albacete, Castilla-La Mancha, ESP"
02125,38.53927,-2.12431484,"Ayna, Albacete, Castilla-La Mancha, ESP"
02127,38.72871,-2.0874441669999,"Peñas de San Pedro, Albacete, Castilla-La Mancha, ESP"
02129,38.6827,-2.088436757,"Alcadozo, Albacete, Castilla-La Mancha, ESP"
02130,38.5695,-2.2101510749999,"Bogarra, Albacete, Castilla-La Mancha, ESP"
02136,38.60292,-2.360988456,"Paterna del Madera, Albacete, Castilla-La Mancha, ESP"
02137,38.61988,-2.395347844,"Peñascosa, Albacete, Castilla-La Mancha, ESP"
02139,38.583595,-2.119135349,"Ayna, Albacete, Castilla-La Mancha, ESP"
02140,38.848318506,-1.9396449999999,"Albacete, Albacete, Castilla-La Mancha, ESP"
02141,38.71493,-1.8776109359999,"Pozohondo, Albacete, Castilla-La Mancha, ESP"
02142,38.653625,-1.901999685,"Pozohondo, Albacete, Castilla-La Mancha, ESP"
02150,39.112655,-1.672596029,"Valdeganga, Albacete, Castilla-La Mancha, ESP"
02151,39.092122781,-1.56823,"Casas de Juan Núñez, Albacete, Castilla-La Mancha, ESP"
02152,39.086083196,-1.3640649999999,"Alatoz, Albacete, Castilla-La Mancha, ESP"
02153,39.103374891,-1.2860049999999,"Carcelén, Albacete, Castilla-La Mancha, ESP"
02154,39.087099027,-1.481665,"Pozo-Lorente, Albacete, Castilla-La Mancha, ESP"
02155,39.044018522,-1.778475,"Albacete, Albacete, Castilla-La Mancha, ESP"
02156,39.039505,-1.7026335809999,"Chinchilla de Monte-Aragón, Albacete, Castilla-La Mancha, ESP"
02160,38.963774689,-2.3359799999999,"Lezuza, Albacete, Castilla-La Mancha, ESP"
02161,38.90717,-2.22307061,"Lezuza, Albacete, Castilla-La Mancha, ESP"
02162,38.93822,-2.1075201269999,"La Herrera, Albacete, Castilla-La Mancha, ESP"
02200,39.303736173,-1.4564099999999,"Casas-Ibáñez, Albacete, Castilla-La Mancha, ESP"
02210,39.19472,-1.433316083,"Alcalá del Júcar, Albacete, Castilla-La Mancha, ESP"
02211,39.185945,-1.402237828,"Alcalá del Júcar, Albacete, Castilla-La Mancha, ESP"
02212,39.271858098,-1.291955,"Casas de Ves, Albacete, Castilla-La Mancha, ESP"
02213,39.20771,-1.239069478,"Villa de Ves, Albacete, Castilla-La Mancha, ESP"
02214,39.28553,-1.2119847009999,"Balsa de Ves, Albacete, Castilla-La Mancha, ESP"
02215,39.302070649,-1.3680949999999,"Alborea, Albacete, Castilla-La Mancha, ESP"
02220,39.17790361,-1.7777899999999,"Motilleja, Albacete, Castilla-La Mancha, ESP"
02230,39.225552869,-1.813575,"Madrigueras, Albacete, Castilla-La Mancha, ESP"
02240,39.203145,-1.715867026,"Mahora, Albacete, Castilla-La Mancha, ESP"
02246,39.286965,-1.729234112,"Navas de Jorquera, Albacete, Castilla-La Mancha, ESP"
02247,39.292291531,-1.659665,"Cenizate, Albacete, Castilla-La Mancha, ESP"
02248,39.17541,-1.521119615,"Jorquera, Albacete, Castilla-La Mancha, ESP"
02249,39.15203,-1.53270506,"Jorquera, Albacete, Castilla-La Mancha, ESP"
02250,39.212865,-1.5381608459999,"Abengibre, Albacete, Castilla-La Mancha, ESP"
02251,39.229795002,-1.6048,"Fuentealbilla, Albacete, Castilla-La Mancha, ESP"
02252,39.215361019,-1.4792199999999,"Alcalá del Júcar, Albacete, Castilla-La Mancha, ESP"
02253,39.230282709,-1.6400599999999,"Golosalvo, Albacete, Castilla-La Mancha, ESP"
02260,39.27185,-1.561138781,"Fuentealbilla, Albacete, Castilla-La Mancha, ESP"
02270,39.362085,-1.539751227,"Villamalea, Albacete, Castilla-La Mancha, ESP"
02300,38.51847,-2.7186060879999,"Alcaraz, Albacete, Castilla-La Mancha, ESP"
02310,38.77892952,-2.565195,"Viveros, Albacete, Castilla-La Mancha, ESP"
02311,38.703863666,-2.6216249999999,"Povedilla, Albacete, Castilla-La Mancha, ESP"
02312,38.72841,-2.536932039,"Alcaraz, Albacete, Castilla-La Mancha, ESP"
02313,38.713253342,-2.417615,"Peñascosa, Albacete, Castilla-La Mancha, ESP"
02314,38.711075,-2.315106967,"Masegoso, Albacete, Castilla-La Mancha, ESP"
02315,38.59188,-2.4929736789999,"Vianos, Albacete, Castilla-La Mancha, ESP"
02316,38.566642476,-2.5447199999999,"Salobre, Albacete, Castilla-La Mancha, ESP"
02320,38.889375,-2.1352812669999,"Balazote, Albacete, Castilla-La Mancha, ESP"
02326,38.797426811,-2.1874849999999,"San Pedro, Albacete, Castilla-La Mancha, ESP"
02327,38.820625,-2.082267724,"Pozuelo, Albacete, Castilla-La Mancha, ESP"
02328,39.028065,-2.0546932619999,"Albacete, Albacete, Castilla-La Mancha, ESP"
02329,38.77669265,-2.24531,"Casas de Lázaro, Albacete, Castilla-La Mancha, ESP"
02340,38.79852,-2.3834917729999,"Robledo, Albacete, Castilla-La Mancha, ESP"
02350,38.576975,-2.649228454,"Villapalacios, Albacete, Castilla-La Mancha, ESP"
02360,38.531925,-2.641591401,"Bienservida, Albacete, Castilla-La Mancha, ESP"
02400,38.53438,-1.666882684,"Hellín, Albacete, Castilla-La Mancha, ESP"
02409,38.46599,-1.683248803,"Hellín, Albacete, Castilla-La Mancha, ESP"
02410,38.5245,-1.94905992,"Liétor, Albacete, Castilla-La Mancha, ESP"
02420,38.534305425,-1.79067,"Hellín, Albacete, Castilla-La Mancha, ESP"
02430,38.457445,-2.0359714269999,"Elche de la Sierra, Albacete, Castilla-La Mancha, ESP"
02434,38.306285,-2.1392233839999,"Letur, Albacete, Castilla-La Mancha, ESP"
02435,38.332823,-1.9860344429999,"Socovos, Albacete, Castilla-La Mancha, ESP"
02436,38.37857,-1.946378629,"Férez, Albacete, Castilla-La Mancha, ESP"
02437,38.32882,-1.922615563,"Socovos, Albacete, Castilla-La Mancha, ESP"
02439,38.39888,-2.04419289,"Letur, Albacete, Castilla-La Mancha, ESP"
02440,38.45526823,-2.238015,"Molinicos, Albacete, Castilla-La Mancha, ESP"
02448,38.51526,-2.296948701,"Molinicos, Albacete, Castilla-La Mancha, ESP"
02449,38.46114647,-2.30292,"Molinicos, Albacete, Castilla-La Mancha, ESP"
02450,38.503385,-2.4685968209999,"Riópar, Albacete, Castilla-La Mancha, ESP"
02459,38.480505,-2.436125444,"Riópar, Albacete, Castilla-La Mancha, ESP"
02460,38.456075,-2.5089821789999,"Villaverde de Guadalimar, Albacete, Castilla-La Mancha, ESP"
02461,38.42223,-2.5024783289999,"Cotillas, Albacete, Castilla-La Mancha, ESP"
02462,38.432870489,-2.5616899999999,"Villaverde de Guadalimar, Albacete, Castilla-La Mancha, ESP"
02480,38.361825,-2.322609144,"Yeste, Albacete, Castilla-La Mancha, ESP"
02484,38.33837,-2.434793322,"Yeste, Albacete, Castilla-La Mancha, ESP"
02485,38.386075,-2.4224512989999,"Yeste, Albacete, Castilla-La Mancha, ESP"
02486,38.409865,-2.3272728229999,"Yeste, Albacete, Castilla-La Mancha, ESP"
02487,38.308890658,-2.242385,"Yeste, Albacete, Castilla-La Mancha, ESP"
02489,38.26979,-2.36995939,"Yeste, Albacete, Castilla-La Mancha, ESP"
02490,38.411432942,-1.65955,"Hellín, Albacete, Castilla-La Mancha, ESP"
02499,38.398409792,-1.60455,"Hellín, Albacete, Castilla-La Mancha, ESP"
02500,38.6199,-1.7442098779999,"Tobarra, Albacete, Castilla-La Mancha, ESP"
02510,38.786625,-1.765092942,"Pozo Cañada, Albacete, Castilla-La Mancha, ESP"
02511,38.729930117,-1.7986599999999,"Albacete, Albacete, Castilla-La Mancha, ESP"
02512,38.685594723,-1.61227,"Chinchilla de Monte-Aragón, Albacete, Castilla-La Mancha, ESP"
02513,38.564765,-1.610698616,"Tobarra, Albacete, Castilla-La Mancha, ESP"
02520,38.942575,-1.7073144029999,"Chinchilla de Monte-Aragón, Albacete, Castilla-La Mancha, ESP"
02530,38.136305,-2.292555099,"Nerpio, Albacete, Castilla-La Mancha, ESP"
02534,38.110395,-2.449308323,"Nerpio, Albacete, Castilla-La Mancha, ESP"
02536,38.214110502,-2.30348,"Nerpio, Albacete, Castilla-La Mancha, ESP"
02600,39.19191,-2.5655575,"Villarrobledo, Albacete, Castilla-La Mancha, ESP"
02610,38.944145,-2.543314833,"El Bonillo, Albacete, Castilla-La Mancha, ESP"
02611,38.96529,-2.7701470069999,"Ossa de Montiel, Albacete, Castilla-La Mancha, ESP"
02612,39.083145,-2.4536071109999,"Munera, Albacete, Castilla-La Mancha, ESP"
02614,38.847425,-2.46908518,"El Ballestero, Albacete, Castilla-La Mancha, ESP"
02620,39.228401019,-2.3111249999999,"Minaya, Albacete, Castilla-La Mancha, ESP"
02630,39.19061,-2.1407976149999,"La Roda, Albacete, Castilla-La Mancha, ESP"
02636,39.319391586,-2.04256,"Villalgordo del Júcar, Albacete, Castilla-La Mancha, ESP"
02637,39.24157,-2.0715087419999,"Fuensanta, Albacete, Castilla-La Mancha, ESP"
02638,39.166965,-2.0328722679999,"Montalvos, Albacete, Castilla-La Mancha, ESP"
02639,39.087128528,-2.23686,"Barrax, Albacete, Castilla-La Mancha, ESP"
02640,38.84288,-1.112164981,"Almansa, Albacete, Castilla-La Mancha, ESP"
02650,38.757795,-1.288279732,"Montealegre del Castillo, Albacete, Castilla-La Mancha, ESP"
02651,38.704025,-1.4496287059999,"Fuente-Álamo, Albacete, Castilla-La Mancha, ESP"
02652,38.620485,-1.4924083179999,"Ontur, Albacete, Castilla-La Mancha, ESP"
02653,38.57737,-1.511269323,"Albatana, Albacete, Castilla-La Mancha, ESP"
02660,38.71489,-1.0232938569999,"Caudete, Albacete, Castilla-La Mancha, ESP"
02690,38.987555,-1.2814716,"Alpera, Albacete, Castilla-La Mancha, ESP"
02691,38.878365,-1.330767846,"Bonete, Albacete, Castilla-La Mancha, ESP"
02692,38.76496,-1.529547952,"Pétrola, Albacete, Castilla-La Mancha, ESP"
02693,38.807105,-1.4370103389999,"Corral-Rubio, Albacete, Castilla-La Mancha, ESP"
02694,38.96612,-1.4207012389999,"Higueruela, Albacete, Castilla-La Mancha, ESP"
02695,38.86731,-1.4800679699999,"Chinchilla de Monte-Aragón, Albacete, Castilla-La Mancha, ESP"
02696,38.96299,-1.563351751,"Hoya-Gonzalo, Albacete, Castilla-La Mancha, ESP"
03001,38.344351854,-0.48421999999994,"Alicante, Alicante, Comunidad Valenciana, ESP"
03002,38.34815,-0.47951797699994,"Alicante, Alicante, Comunidad Valenciana, ESP"
03003,38.340238972,-0.49000499999994,"Alicante, Alicante, Comunidad Valenciana, ESP"
03004,38.349875,-0.48716821399995,"Alicante, Alicante, Comunidad Valenciana, ESP"
03005,38.35394,-0.50298913099994,"Alicante, Alicante, Comunidad Valenciana, ESP"
03006,38.35212,-0.54111720499998,"Alicante, Alicante, Comunidad Valenciana, ESP"
03007,38.339385,-0.52903052999994,"Alicante, Alicante, Comunidad Valenciana, ESP"
03008,38.307375,-0.53910335299997,"Alicante, Alicante, Comunidad Valenciana, ESP"
03009,38.365405,-0.51319693099992,"Alicante, Alicante, Comunidad Valenciana, ESP"
03010,38.365606326,-0.48992499999997,"Alicante, Alicante, Comunidad Valenciana, ESP"
03011,38.378070055,-0.49370499999998,"Alicante, Alicante, Comunidad Valenciana, ESP"
03012,38.359344907,-0.48081499999995,"Alicante, Alicante, Comunidad Valenciana, ESP"
03013,38.35698,-0.47481524199998,"Alicante, Alicante, Comunidad Valenciana, ESP"
03014,38.370273929,-0.48401499999994,"Alicante, Alicante, Comunidad Valenciana, ESP"
03015,38.38025809,-0.47266999999994,"Alicante, Alicante, Comunidad Valenciana, ESP"
03016,38.368285,-0.44697283199997,"Alicante, Alicante, Comunidad Valenciana, ESP"
03100,38.56129,-0.47472690499995,"Jijona, Alicante, Comunidad Valenciana, ESP"
03108,38.604925,-0.40492741699995,"Torremanzanas, Alicante, Comunidad Valenciana, ESP"
03109,38.52285,-0.60320168999993,"Tibi, Alicante, Comunidad Valenciana, ESP"
03110,38.444055,-0.47786270199992,"Mutxamel, Alicante, Comunidad Valenciana, ESP"
03111,38.504784711,-0.41774999999996,"Busot, Alicante, Comunidad Valenciana, ESP"
03112,38.39762,-0.47897380599994,"Alicante, Alicante, Comunidad Valenciana, ESP"
03113,38.33679,-0.60030552199993,"Alicante, Alicante, Comunidad Valenciana, ESP"
03114,38.348970398,-0.58523499999995,"Alicante, Alicante, Comunidad Valenciana, ESP"
03130,38.19947,-0.54598039399997,"Santa Pola, Alicante, Comunidad Valenciana, ESP"
03138,38.164835,-0.47302392599994,"Alicante, Alicante, Comunidad Valenciana, ESP"
03139,38.24916,-0.60382763299998,"Elche, Alicante, Comunidad Valenciana, ESP"
03140,38.09298,-0.67013811099997,"Guardamar del Segura, Alicante, Comunidad Valenciana, ESP"
03149,38.060395,-0.67306973099994,"Guardamar del Segura, Alicante, Comunidad Valenciana, ESP"
03150,38.13746,-0.75198331399997,"Dolores, Alicante, Comunidad Valenciana, ESP"
03158,38.160175,-0.79663229399995,"Catral, Alicante, Comunidad Valenciana, ESP"
03159,38.111915,-0.76072205299994,"Daya Nueva, Alicante, Comunidad Valenciana, ESP"
03160,38.106867502,-0.78709999999995,"Almoradí, Alicante, Comunidad Valenciana, ESP"
03169,38.087485,-0.80403528199997,"Algorfa, Alicante, Comunidad Valenciana, ESP"
03170,38.074862187,-0.71743999999995,"Rojales, Alicante, Comunidad Valenciana, ESP"
03176,38.05144766,-0.73838449999994,"Algorfa, Alicante, Comunidad Valenciana, ESP"
03177,38.120155,-0.69993438099993,"San Fulgencio, Alicante, Comunidad Valenciana, ESP"
03178,38.07484,-0.74057321699996,"Benijófar, Alicante, Comunidad Valenciana, ESP"
03179,38.09722,-0.74084906899998,"Formentera del Segura, Alicante, Comunidad Valenciana, ESP"
03180,37.9851645,-0.68278331999994,"Torrevieja, Alicante, Comunidad Valenciana, ESP"
03181,37.979391467,-0.68526999999995,"Torrevieja, Alicante, Comunidad Valenciana, ESP"
03182,37.979295,-0.67119277499995,"Torrevieja, Alicante, Comunidad Valenciana, ESP"
03183,37.999785,-0.66586950699997,"Torrevieja, Alicante, Comunidad Valenciana, ESP"
03184,38.003562302,-0.69618999999994,"Torrevieja, Alicante, Comunidad Valenciana, ESP"
03185,37.954211457,-0.70708499999995,"Torrevieja, Alicante, Comunidad Valenciana, ESP"
03186,37.987445,-0.74948618999997,"Torrevieja, Alicante, Comunidad Valenciana, ESP"
03187,38.02997,-0.76693303599995,"Los Montesinos, Alicante, Comunidad Valenciana, ESP"
03188,38.017488384,-0.65535999999997,"Torrevieja, Alicante, Comunidad Valenciana, ESP"
03189,37.930955,-0.78331138899995,"Orihuela, Alicante, Comunidad Valenciana, ESP"
03190,37.864235,-0.78853624999994,"Pilar de la Horadada, Alicante, Comunidad Valenciana, ESP"
03191,37.899215,-0.82298655499994,"Pilar de la Horadada, Alicante, Comunidad Valenciana, ESP"
03193,37.976895,-0.80010338599993,"San Miguel de Salinas, Alicante, Comunidad Valenciana, ESP"
03194,38.161945,-0.69278147999995,"Elche, Alicante, Comunidad Valenciana, ESP"
03195,38.250753565,-0.51989999999995,"Elche, Alicante, Comunidad Valenciana, ESP"
03201,38.26631,-0.70521071399997,"Elche, Alicante, Comunidad Valenciana, ESP"
03202,38.27358,-0.68377589699998,"Elche, Alicante, Comunidad Valenciana, ESP"
03203,38.261905,-0.68799222099994,"Elche, Alicante, Comunidad Valenciana, ESP"
03204,38.270665,-0.73520705899995,"Elche, Alicante, Comunidad Valenciana, ESP"
03205,38.267485555,-0.71852999999993,"Elche, Alicante, Comunidad Valenciana, ESP"
03206,38.279225,-0.72014246799995,"Elche, Alicante, Comunidad Valenciana, ESP"
03207,38.300945,-0.68008208299995,"Elche, Alicante, Comunidad Valenciana, ESP"
03208,38.2656,-0.66555225499997,"Elche, Alicante, Comunidad Valenciana, ESP"
03290,38.32621115,-0.64096499999994,"Elche, Alicante, Comunidad Valenciana, ESP"
03291,38.301525,-0.71490509099993,"Elche, Alicante, Comunidad Valenciana, ESP"
03292,38.2184575,-0.63868128599995,"Elche, Alicante, Comunidad Valenciana, ESP"
03293,38.273615,-0.75758202699996,"Elche, Alicante, Comunidad Valenciana, ESP"
03294,38.206326859,-0.67270799999994,"Elche, Alicante, Comunidad Valenciana, ESP"
03295,38.282056968,-0.55348499999997,"Elche, Alicante, Comunidad Valenciana, ESP"
03296,38.21942,-0.74010770299998,"Elche, Alicante, Comunidad Valenciana, ESP"
03300,38.08841,-0.94618537699995,"Orihuela, Alicante, Comunidad Valenciana, ESP"
03310,38.045999761,-0.85340499999995,"Jacarilla, Alicante, Comunidad Valenciana, ESP"
03311,38.080675,-0.98552908199997,"Orihuela, Alicante, Comunidad Valenciana, ESP"
03312,38.047973505,-0.96256999999997,"Orihuela, Alicante, Comunidad Valenciana, ESP"
03313,38.007365,-0.91360065799995,"Orihuela, Alicante, Comunidad Valenciana, ESP"
03314,38.0962145,-0.86761415299998,"Orihuela, Alicante, Comunidad Valenciana, ESP"
03315,38.204995,-0.95389309099994,"Orihuela, Alicante, Comunidad Valenciana, ESP"
03316,38.125773,-0.99500697799994,"Orihuela, Alicante, Comunidad Valenciana, ESP"
03317,38.179488811,-0.92176499999994,"Orihuela, Alicante, Comunidad Valenciana, ESP"
03318,38.175355,-0.95943554599995,"Orihuela, Alicante, Comunidad Valenciana, ESP"
03319,38.03835874,-0.82412999999997,"Orihuela, Alicante, Comunidad Valenciana, ESP"
03320,38.295855,-0.58482518199997,"Elche, Alicante, Comunidad Valenciana, ESP"
03321,38.07142,-0.92358249499995,"Orihuela, Alicante, Comunidad Valenciana, ESP"
03322,38.080655,-0.91444155199997,"Orihuela, Alicante, Comunidad Valenciana, ESP"
03325,38.09101,-0.89768999999995,"Orihuela, Alicante, Comunidad Valenciana, ESP"
03330,38.24198,-0.81388297199993,"Crevillente, Alicante, Comunidad Valenciana, ESP"
03339,38.270790419,-0.82387999999997,"Crevillente, Alicante, Comunidad Valenciana, ESP"
03340,38.212357156,-0.89043999999996,"Albatera, Alicante, Comunidad Valenciana, ESP"
03348,38.156165,-0.87212828899993,"Granja de Rocamora, Alicante, Comunidad Valenciana, ESP"
03349,38.179395,-0.84125642599997,"San Isidro, Alicante, Comunidad Valenciana, ESP"
03350,38.143475,-0.89759875499993,"Cox, Alicante, Comunidad Valenciana, ESP"
03360,38.13206,-0.84953046699997,"Callosa de Segura, Alicante, Comunidad Valenciana, ESP"
03369,38.112185,-0.83797469199993,"Orihuela, Alicante, Comunidad Valenciana, ESP"
03370,38.121,-0.91374413099993,"Redován, Alicante, Comunidad Valenciana, ESP"
03380,38.061123702,-0.89806499999997,"Bigastro, Alicante, Comunidad Valenciana, ESP"
03390,38.074256302,-0.83193499999993,"Benejúzar, Alicante, Comunidad Valenciana, ESP"
03400,38.609672217,-0.85814499999998,"Villena, Alicante, Comunidad Valenciana, ESP"
03408,38.71983,-0.88905465199997,"Villena, Alicante, Comunidad Valenciana, ESP"
03409,38.60486,-0.93970922099993,"Villena, Alicante, Comunidad Valenciana, ESP"
03410,38.6429,-0.75188071999997,"Biar, Alicante, Comunidad Valenciana, ESP"
03420,38.55329,-0.68393544999998,"Castalla, Alicante, Comunidad Valenciana, ESP"
03430,38.63299,-0.66049884999995,"Onil, Alicante, Comunidad Valenciana, ESP"
03440,38.62455,-0.55779125099997,"Ibi, Alicante, Comunidad Valenciana, ESP"
03450,38.70846,-0.67621034299998,"Banyeres de Mariola, Alicante, Comunidad Valenciana, ESP"
03460,38.700615,-0.77348148699997,"Beneixama, Alicante, Comunidad Valenciana, ESP"
03469,38.7088,-0.74566402999994,"Beneixama, Alicante, Comunidad Valenciana, ESP"
03500,38.566544327,-0.15211599999998,"Benidorm, Alicante, Comunidad Valenciana, ESP"
03501,38.53898713,-0.13051999999993,"Benidorm, Alicante, Comunidad Valenciana, ESP"
03502,38.54737,-0.13848462099998,"Benidorm, Alicante, Comunidad Valenciana, ESP"
03503,38.54498,-0.093085262999978,"Benidorm, Alicante, Comunidad Valenciana, ESP"
03509,38.56912,-0.20335069599997,"Finestrat, Alicante, Comunidad Valenciana, ESP"
03510,38.651795,-0.10673383599993,"Callosa d'en Sarrià, Alicante, Comunidad Valenciana, ESP"
03516,38.635820709,-0.19570499999998,"Benimantell, Alicante, Comunidad Valenciana, ESP"
03517,38.676185,-0.26756310699994,"Confrides, Alicante, Comunidad Valenciana, ESP"
03518,38.69824,-0.10342569399995,"Tàrbena, Alicante, Comunidad Valenciana, ESP"
03520,38.618299537,-0.14912999999996,"Polop, Alicante, Comunidad Valenciana, ESP"
03530,38.59463745,-0.12554999999998,"La Nucia, Alicante, Comunidad Valenciana, ESP"
03540,38.37072815,-0.42094499999996,"Alicante, Alicante, Comunidad Valenciana, ESP"
03550,38.406275,-0.43093322199996,"Sant Joan d'Alacant, Alicante, Comunidad Valenciana, ESP"
03559,38.38711,-0.44743150299996,"Alicante, Alicante, Comunidad Valenciana, ESP"
03560,38.44959,-0.38617028799996,"El Campello, Alicante, Comunidad Valenciana, ESP"
03569,38.50945032,-0.36243499999995,"Aigües, Alicante, Comunidad Valenciana, ESP"
03570,38.52249,-0.24417675499996,"Villajoyosa, Alicante, Comunidad Valenciana, ESP"
03578,38.57433,-0.33928404399995,"Relleu, Alicante, Comunidad Valenciana, ESP"
03579,38.616889623,-0.28766999999993,"Sella, Alicante, Comunidad Valenciana, ESP"
03580,38.586215,-0.096687045999943,"l'Alfàs del Pi, Alicante, Comunidad Valenciana, ESP"
03581,38.563805,-0.068172741999945,"l'Alfàs del Pi, Alicante, Comunidad Valenciana, ESP"
03590,38.602325,-0.064681563999955,"Altea, Alicante, Comunidad Valenciana, ESP"
03599,38.64029,-0.033732075999978,"Altea, Alicante, Comunidad Valenciana, ESP"
03600,38.47171,-0.82489829199994,"Elda, Alicante, Comunidad Valenciana, ESP"
03610,38.49461,-0.71972376599996,"Petrer, Alicante, Comunidad Valenciana, ESP"
03630,38.55089,-0.78640439499998,"Sax, Alicante, Comunidad Valenciana, ESP"
03638,38.511675,-0.91471448499993,"Salinas, Alicante, Comunidad Valenciana, ESP"
03639,38.579060768,-0.80198999999993,"Sax, Alicante, Comunidad Valenciana, ESP"
03640,38.429029079,-0.82978999999995,"Monóvar, Alicante, Comunidad Valenciana, ESP"
03649,38.433785,-0.91512264399995,"Monóvar, Alicante, Comunidad Valenciana, ESP"
03650,38.400977196,-1.0417849999999,"Pinoso, Alicante, Comunidad Valenciana, ESP"
03657,38.47264,-1.0974594149999,"Yecla, Murcia, Región de Murcia, ESP"
03658,38.426433552,-1.0135,"Pinoso, Alicante, Comunidad Valenciana, ESP"
03659,38.386579661,-1.0666699999999,"Pinoso, Alicante, Comunidad Valenciana, ESP"
03660,38.39618,-0.78958998199994,"Novelda, Alicante, Comunidad Valenciana, ESP"
03668,38.342825,-1.009396549,"Algueña, Alicante, Comunidad Valenciana, ESP"
03669,38.35853,-0.90264811799995,"La Romana, Alicante, Comunidad Valenciana, ESP"
03670,38.37986,-0.72882689399995,"Monforte del Cid, Alicante, Comunidad Valenciana, ESP"
03679,38.376843948,-0.68645499999997,"Monforte del Cid, Alicante, Comunidad Valenciana, ESP"
03680,38.326135,-0.77480053399995,"Aspe, Alicante, Comunidad Valenciana, ESP"
03688,38.3059,-0.89429236999996,"Hondón de las Nieves, Alicante, Comunidad Valenciana, ESP"
03689,38.269693764,-0.94432999999998,"Hondón de los Frailes, Alicante, Comunidad Valenciana, ESP"
03690,38.418542602,-0.53970999999996,"San Vicente del Raspeig, Alicante, Comunidad Valenciana, ESP"
03698,38.44803,-0.64954789299998,"Agost, Alicante, Comunidad Valenciana, ESP"
03699,38.433154532,-0.58610999999996,"Alicante, Alicante, Comunidad Valenciana, ESP"
03700,38.821658064,0.093645000000038,"Dénia, Alicante, Comunidad Valenciana, ESP"
03709,38.828835362,0.062785000000019,"Dénia, Alicante, Comunidad Valenciana, ESP"
03710,38.653255,0.045235210000044,"Calp, Alicante, Comunidad Valenciana, ESP"
03720,38.69674,0.036853256000029,"Benissa, Alicante, Comunidad Valenciana, ESP"
03723,38.772365,-0.0047661309999398,"Alcalalí, Alicante, Comunidad Valenciana, ESP"
03724,38.694855,0.12698097400005,"Teulada, Alicante, Comunidad Valenciana, ESP"
03725,38.72183,0.11258118400002,"Teulada, Alicante, Comunidad Valenciana, ESP"
03726,38.721125,0.15583394600003,"Benitachell, Alicante, Comunidad Valenciana, ESP"
03727,38.721073667,-0.029234999999971,"Jalón, Alicante, Comunidad Valenciana, ESP"
03728,38.756581444,-0.033404999999959,"Alcalalí, Alicante, Comunidad Valenciana, ESP"
03729,38.742826704,0.011035000000049,"Llíber, Alicante, Comunidad Valenciana, ESP"
03730,38.787175,0.13867338300003,"Jávea, Alicante, Comunidad Valenciana, ESP"
03737,38.796325,0.11884403500005,"Jávea, Alicante, Comunidad Valenciana, ESP"
03738,38.736680315,0.19804500000004,"Jávea, Alicante, Comunidad Valenciana, ESP"
03739,38.75791,0.15489627000005,"Jávea, Alicante, Comunidad Valenciana, ESP"
03740,38.76953,0.067058175000057,"Gata de Gorgos, Alicante, Comunidad Valenciana, ESP"
03749,38.79862,0.085054186000036,"Dénia, Alicante, Comunidad Valenciana, ESP"
03750,38.79297,0.033041789000038,"Pedreguer, Alicante, Comunidad Valenciana, ESP"
03759,38.79154,-0.025216796999928,"Benidoleig, Alicante, Comunidad Valenciana, ESP"
03760,38.82689,0.02248137600003,"Ondara, Alicante, Comunidad Valenciana, ESP"
03769,38.825125,-0.041591151999967,"Benimeli, Alicante, Comunidad Valenciana, ESP"
03770,38.850788438,0.00020500000005086,"El Verger, Alicante, Comunidad Valenciana, ESP"
03778,38.8229,-0.0054629689999501,"Beniarbeig, Alicante, Comunidad Valenciana, ESP"
03779,38.865525,0.0033586100000207,"Dénia, Alicante, Comunidad Valenciana, ESP"
03780,38.842335,-0.10140114099994,"Pego, Alicante, Comunidad Valenciana, ESP"
03786,38.860305,-0.17512951799995,"Adsubia, Alicante, Comunidad Valenciana, ESP"
03788,38.812445,-0.24421747899993,"La Vall de Gallinera, Alicante, Comunidad Valenciana, ESP"
03789,38.80212,-0.16450767799995,"La Vall d'Ebo, Alicante, Comunidad Valenciana, ESP"
03790,38.77926,-0.062204207999969,"Orba, Alicante, Comunidad Valenciana, ESP"
03791,38.771915,-0.13574681099993,"La Vall de Laguar, Alicante, Comunidad Valenciana, ESP"
03792,38.748543707,-0.075064999999938,"Parcent, Alicante, Comunidad Valenciana, ESP"
03793,38.735955,-0.18366085899993,"Castell de Castells, Alicante, Comunidad Valenciana, ESP"
03794,38.74466,-0.11644553199994,"Benigembla, Alicante, Comunidad Valenciana, ESP"
03795,38.806517513,-0.061469999999929,"Tormos, Alicante, Comunidad Valenciana, ESP"
03801,38.68442,-0.45785791099996,"Alcoy, Alicante, Comunidad Valenciana, ESP"
03802,38.69351,-0.48691771999995,"Alcoy, Alicante, Comunidad Valenciana, ESP"
03803,38.717776895,-0.50313999999997,"Alcoy, Alicante, Comunidad Valenciana, ESP"
03804,38.70939,-0.46713084199996,"Alcoy, Alicante, Comunidad Valenciana, ESP"
03810,38.707405,-0.39501196999993,"Benilloba, Alicante, Comunidad Valenciana, ESP"
03811,38.718905,-0.33690967099994,"Quatretondeta, Alicante, Comunidad Valenciana, ESP"
03812,38.74673,-0.33944726299995,"Balones, Alicante, Comunidad Valenciana, ESP"
03813,38.746166559,-0.25063499999993,"Fageca, Alicante, Comunidad Valenciana, ESP"
03814,38.677413626,-0.33353999999997,"Alcoleja, Alicante, Comunidad Valenciana, ESP"
03815,38.657144114,-0.37705499999993,"Penàguila, Alicante, Comunidad Valenciana, ESP"
03816,38.655980166,-0.41109499999993,"Benifallim, Alicante, Comunidad Valenciana, ESP"
03819,38.673815,-0.54579469899994,"Alcoy, Alicante, Comunidad Valenciana, ESP"
03820,38.73058,-0.44748054599995,"Cocentaina, Alicante, Comunidad Valenciana, ESP"
03827,38.76835,-0.37218839999997,"Almudaina, Alicante, Comunidad Valenciana, ESP"
03828,38.790775,-0.33541452099996,"Planes, Alicante, Comunidad Valenciana, ESP"
03829,38.771365,-0.42429411199993,"l'Alqueria d'Asnar, Alicante, Comunidad Valenciana, ESP"
03830,38.77791,-0.43703444099998,"Muro de Alcoy, Alicante, Comunidad Valenciana, ESP"
03837,38.7829,-0.50861552499993,"Agres, Alicante, Comunidad Valenciana, ESP"
03838,38.77979,-0.56412694199997,"Alfafara, Alicante, Comunidad Valenciana, ESP"
03839,38.792875,-0.44531456699997,"Muro de Alcoy, Alicante, Comunidad Valenciana, ESP"
03840,38.816095,-0.41167692099998,"Gaianes, Alicante, Comunidad Valenciana, ESP"
03841,38.79582,-0.40161311899993,"Alcosser, Alicante, Comunidad Valenciana, ESP"
03850,38.827725,-0.36631905099995,"Beniarrés, Alicante, Comunidad Valenciana, ESP"
03860,38.8481,-0.31147218799993,"Lorcha, Alicante, Comunidad Valenciana, ESP"
03870,38.713878463,-0.43109999999996,"Cocentaina, Alicante, Comunidad Valenciana, ESP"
04001,36.837571079,-2.4643199999999,"Almería, Almería, Andalucía, ESP"
04002,36.840265,-2.477258681,"Almería, Almería, Andalucía, ESP"
04003,36.845206663,-2.4649649999999,"Almería, Almería, Andalucía, ESP"
04004,36.838316987,-2.4605749999999,"Almería, Almería, Andalucía, ESP"
04005,36.842818349,-2.456135,"Almería, Almería, Andalucía, ESP"
04006,36.84033,-2.4475679349999,"Almería, Almería, Andalucía, ESP"
04007,36.82977,-2.442208702,"Almería, Almería, Andalucía, ESP"
04008,36.863565,-2.5018863189999,"Almería, Almería, Andalucía, ESP"
04009,36.859685,-2.4426011319999,"Almería, Almería, Andalucía, ESP"
04100,36.959945,-2.23964849,"Níjar, Almería, Andalucía, ESP"
04110,36.955320088,-2.14354,"Níjar, Almería, Andalucía, ESP"
04113,36.882841054,-2.154233,"Níjar, Almería, Andalucía, ESP"
04114,36.986505042,-2.088275,"Níjar, Almería, Andalucía, ESP"
04115,36.854925,-2.0661667969999,"Níjar, Almería, Andalucía, ESP"
04116,36.903435,-2.041000937,"Níjar, Almería, Andalucía, ESP"
04117,36.830975,-2.169358551,"Níjar, Almería, Andalucía, ESP"
04118,36.781965,-2.075822167,"Níjar, Almería, Andalucía, ESP"
04119,36.991335,-2.230788837,"Níjar, Almería, Andalucía, ESP"
04120,36.85145,-2.4008947749999,"Almería, Almería, Andalucía, ESP"
04130,36.919349464,-2.33674,"Almería, Almería, Andalucía, ESP"
04131,36.835605,-2.30201619,"Almería, Almería, Andalucía, ESP"
04140,36.983903712,-1.9069099999999,"Carboneras, Almería, Andalucía, ESP"
04149,36.985202226,-1.9549499999999,"Carboneras, Almería, Andalucía, ESP"
04150,36.766915,-2.223703638,"Almería, Almería, Andalucía, ESP"
04151,36.825408656,-2.233605,"Almería, Almería, Andalucía, ESP"
04160,36.906008717,-2.28914,"Almería, Almería, Andalucía, ESP"
04200,37.06983,-2.353260662,"Tabernas, Almería, Andalucía, ESP"
04210,37.073370611,-2.20564,"Lucainena de las Torres, Almería, Andalucía, ESP"
04211,37.032779526,-2.25719,"Turrillas, Almería, Andalucía, ESP"
04212,37.195995,-2.446752795,"Castro de Filabres, Almería, Andalucía, ESP"
04213,37.201035,-2.3279315939999,"Senés, Almería, Andalucía, ESP"
04230,36.88385,-2.4671100099999,"Huércal de Almería, Almería, Andalucía, ESP"
04240,36.89645,-2.3997580239999,"Viator, Almería, Andalucía, ESP"
04250,36.924621754,-2.4031199999999,"Pechina, Almería, Andalucía, ESP"
04259,36.951655,-2.400366436,"Pechina, Almería, Andalucía, ESP"
04260,36.971149277,-2.4372499999999,"Rioja, Almería, Andalucía, ESP"
04270,37.09857,-2.1538026229999,"Sorbas, Almería, Andalucía, ESP"
04271,37.194335,-2.086204621,"Lubrín, Almería, Andalucía, ESP"
04274,37.16916,-2.1779828259999,"Uleila del Campo, Almería, Andalucía, ESP"
04275,37.236895,-2.323541646,"Tahal, Almería, Andalucía, ESP"
04276,37.204832973,-2.226465,"Benizalón, Almería, Andalucía, ESP"
04277,37.057218368,-2.051815,"Sorbas, Almería, Andalucía, ESP"
04278,37.137385,-2.094345549,"Sorbas, Almería, Andalucía, ESP"
04279,37.124369962,-2.134155,"Sorbas, Almería, Andalucía, ESP"
04280,37.16130775,-1.9309949999999,"Los Gallardos, Almería, Andalucía, ESP"
04288,37.16656,-1.9939234359999,"Bédar, Almería, Andalucía, ESP"
04289,37.109174641,-2.0292049999999,"Sorbas, Almería, Andalucía, ESP"
04400,36.952206173,-2.57461,"Alhama de Almería, Almería, Andalucía, ESP"
04409,36.947967943,-2.628345,"Huécija, Almería, Andalucía, ESP"
04410,36.9179,-2.4722452469999,"Benahadux, Almería, Andalucía, ESP"
04420,37.003463531,-2.5335049999999,"Santa Fe de Mondújar, Almería, Andalucía, ESP"
04430,36.948207726,-2.69082,"Instinción, Almería, Andalucía, ESP"
04431,36.965282096,-2.651895,"Íllar, Almería, Andalucía, ESP"
04440,37.006931635,-2.693865,"Rágol, Almería, Andalucía, ESP"
04450,36.974472634,-2.7378899999999,"Canjáyar, Almería, Andalucía, ESP"
04458,36.99829126,-2.7987249999999,"Almócita, Almería, Andalucía, ESP"
04459,37.059215,-2.7591240319999,"Ohanes, Almería, Andalucía, ESP"
04460,36.973665956,-2.862005,"Fondón, Almería, Andalucía, ESP"
04470,37.023892697,-2.903295,"Láujar de Andarax, Almería, Andalucía, ESP"
04479,37.046649681,-2.97225,"Paterna del Río, Almería, Andalucía, ESP"
04480,36.957062153,-2.969505,"Alcolea, Almería, Andalucía, ESP"
04500,37.198045647,-2.8622599999999,"Fiñana, Almería, Andalucía, ESP"
04510,37.160818055,-2.7651799999999,"Abla, Almería, Andalucía, ESP"
04520,37.137815,-2.7917596579999,"Abrucena, Almería, Andalucía, ESP"
04530,37.12803,-2.7225803699999,"Las Tres Villas, Almería, Andalucía, ESP"
04531,37.035126232,-2.614315,"Alboloduy, Almería, Andalucía, ESP"
04532,37.199502623,-2.7172649999999,"Las Tres Villas, Almería, Andalucía, ESP"
04533,37.114589575,-2.832955,"Abrucena, Almería, Andalucía, ESP"
04540,37.104695,-2.667528768,"Nacimiento, Almería, Andalucía, ESP"
04549,37.163765,-2.6300994649999,"Gérgal, Almería, Andalucía, ESP"
04550,37.09318,-2.527910678,"Gérgal, Almería, Andalucía, ESP"
04558,37.07843,-2.5958781539999,"Alboloduy, Almería, Andalucía, ESP"
04559,37.15314,-2.5291148489999,"Gérgal, Almería, Andalucía, ESP"
04560,36.915335,-2.53501711,"Gádor, Almería, Andalucía, ESP"
04567,36.994185,-2.5670459949999,"Alhabia, Almería, Andalucía, ESP"
04568,37.03073,-2.569945805,"Alsodux, Almería, Andalucía, ESP"
04569,36.928285,-2.6827828569999,"Terque, Almería, Andalucía, ESP"
04600,37.386388773,-1.94587,"Huércal-Overa, Almería, Andalucía, ESP"
04610,37.30203,-1.912688622,"Cuevas del Almanzora, Almería, Andalucía, ESP"
04616,37.27503,-1.761149073,"Cuevas del Almanzora, Almería, Andalucía, ESP"
04617,37.24616405,-1.7971299999999,"Cuevas del Almanzora, Almería, Andalucía, ESP"
04618,37.296567244,-1.82809,"Cuevas del Almanzora, Almería, Andalucía, ESP"
04619,37.314249467,-1.757355,"Cuevas del Almanzora, Almería, Andalucía, ESP"
04620,37.229373073,-1.8716899999999,"Vera, Almería, Andalucía, ESP"
04621,37.222156877,-1.8198399999999,"Vera, Almería, Andalucía, ESP"
04628,37.21660992,-1.9336749999999,"Antas, Almería, Andalucía, ESP"
04629,37.264115,-1.978100739,"Antas, Almería, Andalucía, ESP"
04630,37.187812827,-1.830435,"Garrucha, Almería, Andalucía, ESP"
04638,37.117115241,-1.8693299999999,"Mojácar, Almería, Andalucía, ESP"
04639,37.117835,-1.942687657,"Turre, Almería, Andalucía, ESP"
04640,37.420115,-1.7572903069999,"Pulpí, Almería, Andalucía, ESP"
04647,37.389045,-1.792663529,"Cuevas del Almanzora, Almería, Andalucía, ESP"
04648,37.383847081,-1.688305,"Pulpí, Almería, Andalucía, ESP"
04649,37.40007,-1.7503502079999,"Pulpí, Almería, Andalucía, ESP"
04650,37.32045508,-2.037885,"Zurgena, Almería, Andalucía, ESP"
04660,37.339871087,-2.0932799999999,"Arboleas, Almería, Andalucía, ESP"
04661,37.39349311,-2.0441499999999,"Zurgena, Almería, Andalucía, ESP"
04662,37.33967,-1.9687432269999,"Huércal-Overa, Almería, Andalucía, ESP"
04690,37.455692679,-1.85095,"Huércal-Overa, Almería, Andalucía, ESP"
04691,37.480373907,-1.9252999999999,"Huércal-Overa, Almería, Andalucía, ESP"
04692,37.4471,-2.0329746699999,"Taberno, Almería, Andalucía, ESP"
04693,37.480182868,-1.9940599999999,"Huércal-Overa, Almería, Andalucía, ESP"
04694,37.400755,-1.9149768029999,"Huércal-Overa, Almería, Andalucía, ESP"
04700,36.774696007,-2.8069649999999,"El Ejido, Almería, Andalucía, ESP"
04710,36.78758,-2.748074596,"El Ejido, Almería, Andalucía, ESP"
04711,36.7114205,-2.7823856049999,"El Ejido, Almería, Andalucía, ESP"
04712,36.759557698,-2.869975,"El Ejido, Almería, Andalucía, ESP"
04713,36.77261,-2.931931612,"Balanegra, Almería, Andalucía, ESP"
04715,36.725575101,-2.8398549999999,"El Ejido, Almería, Andalucía, ESP"
04716,36.748045,-2.744828664,"El Ejido, Almería, Andalucía, ESP"
04717,36.71084,-2.7077118359999,"El Ejido, Almería, Andalucía, ESP"
04720,36.8271745,-2.5801449429999,"Roquetas de Mar, Almería, Andalucía, ESP"
04721,36.813136,-2.625332,"Vícar, Almería, Andalucía, ESP"
04727,36.842065,-2.6351790849999,"Vícar, Almería, Andalucía, ESP"
04728,36.87182,-2.7007076539999,"Félix, Almería, Andalucía, ESP"
04729,36.86956,-2.5972778139999,"Enix, Almería, Andalucía, ESP"
04738,36.793232904,-2.674225,"Vícar, Almería, Andalucía, ESP"
04740,36.762148074,-2.61639,"Roquetas de Mar, Almería, Andalucía, ESP"
04741,36.768391042,-2.64739,"Roquetas de Mar, Almería, Andalucía, ESP"
04743,36.731142522,-2.649085,"Roquetas de Mar, Almería, Andalucía, ESP"
04745,36.759126734,-2.6867399999999,"La Mojonera, Almería, Andalucía, ESP"
04746,36.796435,-2.697081442,"La Mojonera, Almería, Andalucía, ESP"
04750,36.84995,-2.818930843,"Dalías, Almería, Andalucía, ESP"
04760,36.878135,-2.916935555,"Berja, Almería, Andalucía, ESP"
04768,36.9215,-3.009453069,"Alcolea, Almería, Andalucía, ESP"
04769,36.842325499,-2.987025,"Berja, Almería, Andalucía, ESP"
04770,36.781545,-3.0705938999999,"Adra, Almería, Andalucía, ESP"
04778,36.75766,-3.051613679,"Adra, Almería, Andalucía, ESP"
04779,36.7561135,-2.9523170479999,"Adra, Almería, Andalucía, ESP"
04800,37.37791,-2.1609284589999,"Albox, Almería, Andalucía, ESP"
04810,37.448085,-2.284481781,"Oria, Almería, Andalucía, ESP"
04811,37.503385,-2.2125031909999,"Oria, Almería, Andalucía, ESP"
04812,37.443392395,-2.17995,"Albox, Almería, Andalucía, ESP"
04813,37.488335642,-2.1451499999999,"Albox, Almería, Andalucía, ESP"
04814,37.40923,-2.113945631,"Albox, Almería, Andalucía, ESP"
04815,37.34927,-2.1393902789999,"Cantoria, Almería, Andalucía, ESP"
04820,37.64821,-2.125117695,"Vélez-Rubio, Almería, Andalucía, ESP"
04825,37.60516,-2.278269899,"Chirivel, Almería, Andalucía, ESP"
04826,37.623225,-2.106572451,"Vélez-Rubio, Almería, Andalucía, ESP"
04827,37.58777,-2.062699381,"Vélez-Rubio, Almería, Andalucía, ESP"
04828,37.552435,-2.0822612499999,"Vélez-Rubio, Almería, Andalucía, ESP"
04829,37.58538,-1.992928306,"Vélez-Rubio, Almería, Andalucía, ESP"
04830,37.770635,-2.111933348,"Vélez-Blanco, Almería, Andalucía, ESP"
04838,37.71179,-2.158420011,"María, Almería, Andalucía, ESP"
04839,37.806855,-2.2593111599999,"María, Almería, Andalucía, ESP"
04850,37.34874,-2.197329484,"Cantoria, Almería, Andalucía, ESP"
04857,37.281787193,-2.183885,"Albanchez, Almería, Andalucía, ESP"
04858,37.293345261,-2.159465,"Albanchez, Almería, Andalucía, ESP"
04859,37.274952965,-2.2166149999999,"Cóbdar, Almería, Andalucía, ESP"
04860,37.378271118,-2.305755,"Olula del Río, Almería, Andalucía, ESP"
04867,37.307924735,-2.305445,"Macael, Almería, Andalucía, ESP"
04868,37.303674214,-2.340325,"Laroya, Almería, Andalucía, ESP"
04869,37.366527303,-2.268565,"Fines, Almería, Andalucía, ESP"
04870,37.333912528,-2.3584949999999,"Purchena, Almería, Andalucía, ESP"
04877,37.399548704,-2.3951299999999,"Somontín, Almería, Andalucía, ESP"
04878,37.302493069,-2.38983,"Sierro, Almería, Andalucía, ESP"
04879,37.393625,-2.350216669,"Urrácal, Almería, Andalucía, ESP"
04880,37.344495,-2.4330893109999,"Tíjola, Almería, Andalucía, ESP"
04887,37.418198673,-2.470225,"Lúcar, Almería, Andalucía, ESP"
04888,37.3301,-2.4435753949999,"Bayarque, Almería, Andalucía, ESP"
04889,37.252285,-2.483857793,"Bacares, Almería, Andalucía, ESP"
04890,37.30118,-2.5185387679999,"Serón, Almería, Andalucía, ESP"
04897,37.333437144,-2.601165,"Alcóntar, Almería, Andalucía, ESP"
04898,37.38443,-2.583734222,"Serón, Almería, Andalucía, ESP"
04899,37.393562798,-2.545245,"Serón, Almería, Andalucía, ESP"
05001,40.656825,-4.6952545359999,"Ávila, Ávila, Castilla y León, ESP"
05002,40.613135,-4.733283231,"El Fresno, Ávila, Castilla y León, ESP"
05003,40.64202865,-4.66795,"Ávila, Ávila, Castilla y León, ESP"
05004,40.651345,-4.6429190919999,"Ávila, Ávila, Castilla y León, ESP"
05005,40.675082379,-4.693395,"Ávila, Ávila, Castilla y León, ESP"
05100,40.38709,-4.6862075179999,"Navaluenga, Ávila, Castilla y León, ESP"
05110,40.49347,-4.6023654209999,"El Barraco, Ávila, Castilla y León, ESP"
05111,40.469546966,-4.6734049999999,"San Juan de la Nava, Ávila, Castilla y León, ESP"
05112,40.41995,-4.630846929,"San Juan de la Nava, Ávila, Castilla y León, ESP"
05113,40.36553,-4.768186731,"Burgohondo, Ávila, Castilla y León, ESP"
05114,40.370776157,-4.8300599999999,"Villanueva de Ávila, Ávila, Castilla y León, ESP"
05115,40.34635,-4.8859396199999,"Navarrevisca, Ávila, Castilla y León, ESP"
05120,40.45944,-4.80623664,"San Juan del Molinillo, Ávila, Castilla y León, ESP"
05122,40.41224,-4.8608907409999,"Navatalgordo, Ávila, Castilla y León, ESP"
05123,40.411155,-4.967169289,"Hoyocasero, Ávila, Castilla y León, ESP"
05130,40.53927,-4.9107092109999,"Solosancho, Ávila, Castilla y León, ESP"
05131,40.516335,-4.9861414649999,"Narros del Puerto, Ávila, Castilla y León, ESP"
05132,40.365685764,-5.0546249999999,"San Martín del Pimpollar, Ávila, Castilla y León, ESP"
05133,40.426165,-5.1774049269999,"San Martín de la Vega del Alberche, Ávila, Castilla y León, ESP"
05134,40.4549,-4.9632524199999,"Navalacruz, Ávila, Castilla y León, ESP"
05140,40.679717639,-4.8143049999999,"Casasola, Ávila, Castilla y León, ESP"
05141,40.694725,-4.896732987,"Gallegos de Altamiros, Ávila, Castilla y León, ESP"
05143,40.668135,-5.0130610599999,"Valdecasa, Ávila, Castilla y León, ESP"
05145,40.657712021,-5.0618449999999,"Manjabálago y Ortigosa de Rioalmar, Ávila, Castilla y León, ESP"
05146,40.783265,-5.0736666619999,"San García de Ingelmos, Ávila, Castilla y León, ESP"
05147,40.69565,-5.126739953,"Gallegos de Sobrinos, Ávila, Castilla y León, ESP"
05148,40.700071316,-5.19854,"Cabezas del Villar, Ávila, Castilla y León, ESP"
05149,40.740954843,-5.0054099999999,"Solana de Rioalmar, Ávila, Castilla y León, ESP"
05150,40.6759809,-5.269505,"San Miguel de Serrezuela, Ávila, Castilla y León, ESP"
05151,40.65462,-5.3343008439999,"Diego del Carpio, Ávila, Castilla y León, ESP"
05152,40.61969,-5.377111882,"Martínez, Ávila, Castilla y León, ESP"
05153,40.533211092,-5.345751,"Malpartida de Corneja, Ávila, Castilla y León, ESP"
05154,40.565965,-5.477953731,"Narrillos del Álamo, Ávila, Castilla y León, ESP"
05160,40.711605,-4.7681111049999,"Ávila, Ávila, Castilla y León, ESP"
05162,40.801675,-4.771203393,"Las Berlanas, Ávila, Castilla y León, ESP"
05163,40.79569,-4.725479949,"Peñalba de Ávila, Ávila, Castilla y León, ESP"
05164,40.843515,-4.7776407019999,"El Oso, Ávila, Castilla y León, ESP"
05165,40.927245,-4.744028353,"El Bohodón, Ávila, Castilla y León, ESP"
05166,40.892465,-4.716210614,"Villanueva de Gómez, Ávila, Castilla y León, ESP"
05190,40.54166,-4.7458706149999,"Riofrío, Ávila, Castilla y León, ESP"
05191,40.557184362,-4.829535,"Mironcillo, Ávila, Castilla y León, ESP"
05192,40.636745,-4.7994064279999,"La Serrada, Ávila, Castilla y León, ESP"
05193,40.711705,-4.486926341,"Ojos-Albos, Ávila, Castilla y León, ESP"
05194,40.701415,-4.600198722,"Berrocalejo de Aragona, Ávila, Castilla y León, ESP"
05195,40.6579,-4.50625474,"Ávila, Ávila, Castilla y León, ESP"
05196,40.60291,-4.617278341,"Tornadizos de Ávila, Ávila, Castilla y León, ESP"
05197,40.635345,-4.7004693119999,"Ávila, Ávila, Castilla y León, ESP"
05198,40.517245,-4.853164609,"Sotalbo, Ávila, Castilla y León, ESP"
05200,41.059387999,-4.7350799999999,"Arévalo, Ávila, Castilla y León, ESP"
05210,41.068605,-5.1061483779999,"Horcajo de las Torres, Ávila, Castilla y León, ESP"
05211,40.97845,-4.9728713489999,"Bernuy-Zapardiel, Ávila, Castilla y León, ESP"
05212,41.008385,-4.9109906599999,"Fuentes de Año, Ávila, Castilla y León, ESP"
05213,41.00236,-4.856306526,"Langa, Ávila, Castilla y León, ESP"
05214,40.920422736,-4.6440699999999,"Pajares de Adaja, Ávila, Castilla y León, ESP"
05215,41.103225,-4.772328482,"Palacios de Goda, Ávila, Castilla y León, ESP"
05216,40.99781,-4.768752266,"Nava de Arévalo, Ávila, Castilla y León, ESP"
05217,40.94043,-4.862824502,"Constanzana, Ávila, Castilla y León, ESP"
05220,41.096265,-5.018214461,"Madrigal de las Altas Torres, Ávila, Castilla y León, ESP"
05229,41.067495,-4.918285097,"Barromán, Ávila, Castilla y León, ESP"
05230,40.592165,-4.3220166629999,"Las Navas del Marqués, Ávila, Castilla y León, ESP"
05239,40.650185,-4.239591016,"Peguerinos, Ávila, Castilla y León, ESP"
05240,40.5921,-4.442955485,"Navalperal de Pinares, Ávila, Castilla y León, ESP"
05250,40.50022,-4.3862053139999,"El Hoyo de Pinares, Ávila, Castilla y León, ESP"
05260,40.45853,-4.425408638,"Cebreros, Ávila, Castilla y León, ESP"
05267,40.53581,-4.508909054,"San Bartolomé de Pinares, Ávila, Castilla y León, ESP"
05268,40.56199,-4.5720331819999,"Herradón de Pinares, Ávila, Castilla y León, ESP"
05270,40.404325,-4.5103899119999,"El Tiemblo, Ávila, Castilla y León, ESP"
05278,40.38334,-4.5805771199999,"El Barraco, Ávila, Castilla y León, ESP"
05279,40.371605,-4.4836101719999,"El Tiemblo, Ávila, Castilla y León, ESP"
05280,40.761365,-4.668089048,"Mingorría, Ávila, Castilla y León, ESP"
05289,40.75475,-4.59732213,"Tolbaños, Ávila, Castilla y León, ESP"
05290,40.88753,-4.615435525,"Blascosancho, Ávila, Castilla y León, ESP"
05291,40.82687,-4.5702339229999,"Maello, Ávila, Castilla y León, ESP"
05292,40.822815,-4.6414626669999,"Vega de Santa María, Ávila, Castilla y León, ESP"
05294,40.59609602,-4.49601,"Herradón de Pinares, Ávila, Castilla y León, ESP"
05296,40.98025478,-4.630935,"Gutierre-Muñoz, Ávila, Castilla y León, ESP"
05298,41.019815,-5.045911142,"Rasueros, Ávila, Castilla y León, ESP"
05299,41.12891,-4.9832757689999,"Blasconuño de Matacabras, Ávila, Castilla y León, ESP"
05300,40.862871352,-4.9712049999999,"Crespos, Ávila, Castilla y León, ESP"
05301,40.92437,-5.0306491819999,"Muñosancho, Ávila, Castilla y León, ESP"
05309,40.856190622,-4.9338149999999,"Viñegra de Moraña, Ávila, Castilla y León, ESP"
05310,40.926095,-4.956549035,"Fontiveros, Ávila, Castilla y León, ESP"
05320,40.736385,-4.736515346,"Cardeñosa, Ávila, Castilla y León, ESP"
05350,40.795908017,-4.87062,"San Pedro del Arroyo, Ávila, Castilla y León, ESP"
05357,40.76562,-4.9496410849999,"Brabos, Ávila, Castilla y León, ESP"
05358,40.863222583,-4.85694,"Papatrigo, Ávila, Castilla y León, ESP"
05369,40.8505,-5.062309979,"Narros del Castillo, Ávila, Castilla y León, ESP"
05370,40.938505,-5.082294095,"Flores de Ávila, Ávila, Castilla y León, ESP"
05380,40.877055,-5.1104446869999,"Gimialcón, Ávila, Castilla y León, ESP"
05400,40.146451662,-5.14336,"Arenas de San Pedro, Ávila, Castilla y León, ESP"
05410,40.253517194,-5.03178,"Mombeltrán, Ávila, Castilla y León, ESP"
05412,40.280000788,-4.96064,"San Esteban del Valle, Ávila, Castilla y León, ESP"
05413,40.327429147,-4.982135,"Villarejo del Valle, Ávila, Castilla y León, ESP"
05414,40.295695,-5.031023499,"Cuevas del Valle, Ávila, Castilla y León, ESP"
05415,40.26297,-5.143269752,"El Hornillo, Ávila, Castilla y León, ESP"
05416,40.2787,-5.090255869,"El Arenal, Ávila, Castilla y León, ESP"
05417,40.232066059,-5.14888,"Guisando, Ávila, Castilla y León, ESP"
05418,40.15694,-4.995867075,"Arenas de San Pedro, Ávila, Castilla y León, ESP"
05420,40.288190937,-4.5984399999999,"Sotillo de la Adrada, Ávila, Castilla y León, ESP"
05427,40.23322,-4.623235865,"Fresnedilla, Ávila, Castilla y León, ESP"
05428,40.32967,-4.5747911669999,"Casillas, Ávila, Castilla y León, ESP"
05429,40.34308,-4.4983698259999,"Navahondilla, Ávila, Castilla y León, ESP"
05430,40.311680115,-4.65667,"La Adrada, Ávila, Castilla y León, ESP"
05440,40.317535,-4.705541872,"Piedralaves, Ávila, Castilla y León, ESP"
05450,40.300393609,-4.767895,"Casavieja, Ávila, Castilla y León, ESP"
05460,40.283874815,-4.8721699999999,"Gavilanes, Ávila, Castilla y León, ESP"
05461,40.282391459,-4.84108,"Mijares, Ávila, Castilla y León, ESP"
05470,40.243865,-4.917886962,"Pedro Bernardo, Ávila, Castilla y León, ESP"
05480,40.179350698,-5.274335,"Candeleda, Ávila, Castilla y León, ESP"
05489,40.16948,-5.3339099589999,"Candeleda, Ávila, Castilla y León, ESP"
05490,40.188345,-4.9340266799999,"Lanzahíta, Ávila, Castilla y León, ESP"
05491,40.193735,-5.0121591349999,"Mombeltrán, Ávila, Castilla y León, ESP"
05492,40.17055,-5.1625146929999,"Poyales del Hoyo, Ávila, Castilla y León, ESP"
05500,40.466997306,-5.318975,"Piedrahíta, Ávila, Castilla y León, ESP"
05510,40.50701,-5.41489554,"Santa María del Berrocal, Ávila, Castilla y León, ESP"
05514,40.530564088,-5.26206,"Bonilla de la Sierra, Ávila, Castilla y León, ESP"
05515,40.47152,-5.3547073629999,"Piedrahíta, Ávila, Castilla y León, ESP"
05516,40.469165,-5.4085128859999,"Hoyorredondo, Ávila, Castilla y León, ESP"
05520,40.62467,-4.859707778,"Padiernos, Ávila, Castilla y León, ESP"
05530,40.599565,-4.9195637899999,"Santa María del Arroyo, Ávila, Castilla y León, ESP"
05540,40.600375,-5.0123111,"Muñana, Ávila, Castilla y León, ESP"
05560,40.565228351,-5.09642,"Villatoro, Ávila, Castilla y León, ESP"
05571,40.50357,-5.168785323,"Navacepedilla de Corneja, Ávila, Castilla y León, ESP"
05580,40.383965,-5.4212685599999,"Aldeanueva de Santa Cruz, Ávila, Castilla y León, ESP"
05591,40.58512,-5.196501848,"Villanueva del Campillo, Ávila, Castilla y León, ESP"
05592,40.42744,-5.3317070869999,"Santiago del Collado, Ávila, Castilla y León, ESP"
05593,40.41779,-5.404029454,"La Aldehuela, Ávila, Castilla y León, ESP"
05600,40.35417,-5.517758687,"El Barco de Ávila, Ávila, Castilla y León, ESP"
05610,40.38648,-5.623971538,"Becedas, Ávila, Castilla y León, ESP"
05619,40.444550755,-5.625685,"Medinilla, Ávila, Castilla y León, ESP"
05620,40.354520539,-5.559115,"La Carrera, Ávila, Castilla y León, ESP"
05621,40.30513784,-5.6546499999999,"Puerto Castilla, Ávila, Castilla y León, ESP"
05630,40.315170274,-5.382785,"Santiago del Tormes, Ávila, Castilla y León, ESP"
05631,40.334514945,-5.301645,"Zapardiel de la Ribera, Ávila, Castilla y León, ESP"
05633,40.382580034,-5.245445,"San Juan de Gredos, Ávila, Castilla y León, ESP"
05634,40.329678402,-5.178645,"Hoyos del Espino, Ávila, Castilla y León, ESP"
05635,40.349330699,-5.1153399999999,"Navarredonda de Gredos, Ávila, Castilla y León, ESP"
05690,40.302793,-5.442698908,"Bohoyo, Ávila, Castilla y León, ESP"
05691,40.349583913,-5.60106,"Solana de Ávila, Ávila, Castilla y León, ESP"
05692,40.397171136,-5.53791,"El Losar del Barco, Ávila, Castilla y León, ESP"
05693,40.295780602,-5.5839599999999,"Gil García, Ávila, Castilla y León, ESP"
05694,40.413826327,-5.563815,"Junciana, Ávila, Castilla y León, ESP"
05695,40.4379,-5.4647734509999,"La Horcajada, Ávila, Castilla y León, ESP"
05696,40.391249338,-5.496545,"La Horcajada, Ávila, Castilla y León, ESP"
05697,40.269565,-5.5135336399999,"Navalonguilla, Ávila, Castilla y León, ESP"
06001,38.879758,-6.9732044269999,"Badajoz, Badajoz, Extremadura, ESP"
06002,38.87899,-6.9671972589999,"Badajoz, Badajoz, Extremadura, ESP"
06003,38.873985,-6.966474853,"Badajoz, Badajoz, Extremadura, ESP"
06004,38.87225,-6.97485683,"Badajoz, Badajoz, Extremadura, ESP"
06005,38.8759355,-6.978593937,"Badajoz, Badajoz, Extremadura, ESP"
06006,38.904444586,-7.0162499689999,"Badajoz, Badajoz, Extremadura, ESP"
06007,38.9742,-6.7790695469999,"Badajoz, Badajoz, Extremadura, ESP"
06008,38.88874,-6.91424875,"Badajoz, Badajoz, Extremadura, ESP"
06009,38.84601,-6.888560979,"Badajoz, Badajoz, Extremadura, ESP"
06010,38.71918,-6.94005693,"Badajoz, Badajoz, Extremadura, ESP"
06011,38.80540051,-7.0785144019999,"Badajoz, Badajoz, Extremadura, ESP"
06050,38.8831445,-6.81387187,"Badajoz, Badajoz, Extremadura, ESP"
06100,38.708245727,-7.141355,"Olivenza, Badajoz, Extremadura, ESP"
06105,38.54958,-7.257963025,"Cheles, Badajoz, Extremadura, ESP"
06106,38.614,-7.1857573799999,"Olivenza, Badajoz, Extremadura, ESP"
06107,38.701185,-7.2252406539999,"Olivenza, Badajoz, Extremadura, ESP"
06108,38.602731771,-7.03901,"Olivenza, Badajoz, Extremadura, ESP"
06109,38.7137,-7.070211479,"Olivenza, Badajoz, Extremadura, ESP"
06110,38.376095,-7.1319707489999,"Villanueva del Fresno, Badajoz, Extremadura, ESP"
06120,38.251555,-6.9944525139999,"Oliva de la Frontera, Badajoz, Extremadura, ESP"
06129,38.330864804,-6.9917649999999,"Zahínos, Badajoz, Extremadura, ESP"
06130,38.666095,-6.976535768,"Valverde de Leganés, Badajoz, Extremadura, ESP"
06131,38.522475,-7.129979449,"Alconchel, Badajoz, Extremadura, ESP"
06132,38.418905,-7.003179142,"Higuera de Vargas, Badajoz, Extremadura, ESP"
06133,38.523596389,-7.0044649999999,"Táliga, Badajoz, Extremadura, ESP"
06134,38.241731706,-7.1019899999999,"Valencia del Mombuey, Badajoz, Extremadura, ESP"
06140,38.8657,-6.76580875,"Talavera la Real, Badajoz, Extremadura, ESP"
06150,38.644294207,-6.6459899999999,"Santa Marta, Badajoz, Extremadura, ESP"
06160,38.51059,-6.88325329,"Barcarrota, Badajoz, Extremadura, ESP"
06170,38.75739,-6.757105995,"Badajoz, Badajoz, Extremadura, ESP"
06171,38.611666506,-6.839305,"Almendral, Badajoz, Extremadura, ESP"
06172,38.649015,-6.767356498,"Torre de Miguel Sesmero, Badajoz, Extremadura, ESP"
06173,38.575428269,-6.75064,"Nogales, Badajoz, Extremadura, ESP"
06174,38.513285369,-6.7836849999999,"Salvaleón, Badajoz, Extremadura, ESP"
06175,38.50266,-6.68467587,"Salvatierra de los Barros, Badajoz, Extremadura, ESP"
06176,38.54127,-6.616870175,"La Parra, Badajoz, Extremadura, ESP"
06177,38.385275,-6.7984454589999,"Valle de Matamoros, Badajoz, Extremadura, ESP"
06178,38.36593,-6.7887808039999,"Valle de Santa Ana, Badajoz, Extremadura, ESP"
06180,38.94255,-6.964202202,"Badajoz, Badajoz, Extremadura, ESP"
06181,39.003175,-6.7079048749999,"Badajoz, Badajoz, Extremadura, ESP"
06182,38.94948,-6.747614906,"Badajoz, Badajoz, Extremadura, ESP"
06183,38.928391736,-6.841868635,"Badajoz, Badajoz, Extremadura, ESP"
06184,38.927265,-6.762548635,"Pueblonuevo del Guadiana, Badajoz, Extremadura, ESP"
06185,38.88864,-6.694241791,"Valdelacalzada, Badajoz, Extremadura, ESP"
06186,38.935695,-6.68143578,"Guadiana, Badajoz, Extremadura, ESP"
06187,38.85091,-6.6781191759999,"Lobón, Badajoz, Extremadura, ESP"
06190,39.0921,-6.6612904409999,"La Roca de la Sierra, Badajoz, Extremadura, ESP"
06191,39.178675,-6.6294119369999,"Puebla de Obando, Badajoz, Extremadura, ESP"
06192,39.117200727,-6.82733,"Villar del Rey, Badajoz, Extremadura, ESP"
06193,39.101286034,-6.748143381,"Badajoz, Badajoz, Extremadura, ESP"
06194,38.985715,-6.8878012329999,"Badajoz, Badajoz, Extremadura, ESP"
06195,38.879715805,-6.8556399999999,"Badajoz, Badajoz, Extremadura, ESP"
06196,38.729545,-6.6583646039999,"Corte de Peleas, Badajoz, Extremadura, ESP"
06197,38.714246084,-6.7032649999999,"Entrín Bajo, Badajoz, Extremadura, ESP"
06200,38.698166987,-6.41781,"Almendralejo, Badajoz, Extremadura, ESP"
06207,38.660887644,-6.4869849999999,"Aceuchal, Badajoz, Extremadura, ESP"
06208,38.615035247,-6.5453649999999,"Villalba de los Barros, Badajoz, Extremadura, ESP"
06209,38.74017,-6.570931457,"Solana de los Barros, Badajoz, Extremadura, ESP"
06210,38.79228,-6.3747669389999,"Torremejía, Badajoz, Extremadura, ESP"
06220,38.585101069,-6.34163,"Villafranca de los Barros, Badajoz, Extremadura, ESP"
06225,38.538409144,-6.2413099999999,"Ribera del Fresno, Badajoz, Extremadura, ESP"
06226,38.478245,-6.1905288199999,"Hinojosa del Valle, Badajoz, Extremadura, ESP"
06227,38.46345,-6.070762074,"Llera, Badajoz, Extremadura, ESP"
06228,38.566655,-6.04539826,"Hornachos, Badajoz, Extremadura, ESP"
06229,38.593735,-6.213665222,"Puebla del Prior, Badajoz, Extremadura, ESP"
06230,38.468825,-6.3294319839999,"Los Santos de Maimona, Badajoz, Extremadura, ESP"
06240,38.22242,-6.2661283329999,"Fuente de Cantos, Badajoz, Extremadura, ESP"
06249,38.319,-6.3103181709999,"Calzadilla de los Barros, Badajoz, Extremadura, ESP"
06250,38.316675,-6.199576662,"Bienvenida, Badajoz, Extremadura, ESP"
06260,38.05396,-6.2059778989999,"Monesterio, Badajoz, Extremadura, ESP"
06270,38.147955,-6.4434683609999,"Segura de León, Badajoz, Extremadura, ESP"
06280,38.068365,-6.523691948,"Fuentes de León, Badajoz, Extremadura, ESP"
06290,38.389155,-6.188810813,"Usagre, Badajoz, Extremadura, ESP"
06291,38.1636,-6.202637664,"Montemolín, Badajoz, Extremadura, ESP"
06292,38.073092183,-6.33831,"Calera de León, Badajoz, Extremadura, ESP"
06293,38.088440254,-6.406195,"Cabeza la Vaca, Badajoz, Extremadura, ESP"
06300,38.43538,-6.436197234,"Zafra, Badajoz, Extremadura, ESP"
06310,38.398135,-6.365124232,"Puebla de Sancho Pérez, Badajoz, Extremadura, ESP"
06320,38.32534,-6.413423333,"Medina de las Torres, Badajoz, Extremadura, ESP"
06329,38.33620922,-6.4844849999999,"Atalaya, Badajoz, Extremadura, ESP"
06330,38.24921,-6.4454157179999,"Valencia del Ventoso, Badajoz, Extremadura, ESP"
06340,38.202635,-6.5737869399999,"Fregenal de la Sierra, Badajoz, Extremadura, ESP"
06350,38.1483,-6.73451848,"Higuera la Real, Badajoz, Extremadura, ESP"
06360,38.550923921,-6.4414399999999,"Fuente del Maestre, Badajoz, Extremadura, ESP"
06370,38.37875,-6.575590624,"Burguillos del Cerro, Badajoz, Extremadura, ESP"
06378,38.33299,-6.5344938609999,"Valverde de Burguillos, Badajoz, Extremadura, ESP"
06380,38.389815,-6.888090077,"Jerez de los Caballeros, Badajoz, Extremadura, ESP"
06389,38.303425,-6.70383873,"Jerez de los Caballeros, Badajoz, Extremadura, ESP"
06390,38.489225566,-6.5522349999999,"Feria, Badajoz, Extremadura, ESP"
06391,38.452204229,-6.5206749999999,"La Lapa, Badajoz, Extremadura, ESP"
06392,38.3723665,-6.294354686,"Usagre, Badajoz, Extremadura, ESP"
06393,38.397954415,-6.4762749999999,"Alconera, Badajoz, Extremadura, ESP"
06394,38.159185,-6.536081603,"Bodonal de la Sierra, Badajoz, Extremadura, ESP"
06400,38.810978779,-5.92015,"Don Benito, Badajoz, Extremadura, ESP"
06410,39.036345,-6.0485063379999,"Don Benito, Badajoz, Extremadura, ESP"
06411,38.97463,-5.9823256789999,"Medellín, Badajoz, Extremadura, ESP"
06412,39.0419215,-5.9245952929999,"Don Benito, Badajoz, Extremadura, ESP"
06413,38.912935,-5.9448301579999,"Mengabril, Badajoz, Extremadura, ESP"
06415,38.952655,-6.046067803,"Medellín, Badajoz, Extremadura, ESP"
06420,38.786205,-5.503786111,"Castuera, Badajoz, Extremadura, ESP"
06427,38.58273,-5.4736448259999,"Monterrubio de la Serena, Badajoz, Extremadura, ESP"
06428,38.638945,-5.5278691509999,"Benquerencia de la Serena, Badajoz, Extremadura, ESP"
06429,38.682155,-5.471893343,"Benquerencia de la Serena, Badajoz, Extremadura, ESP"
06430,38.615939062,-5.6650799999999,"Zalamea de la Serena, Badajoz, Extremadura, ESP"
06439,38.65407,-5.604244174,"Esparragosa de la Serena, Badajoz, Extremadura, ESP"
06440,38.700189344,-5.6236249999999,"Malpartida de la Serena, Badajoz, Extremadura, ESP"
06441,38.655245,-5.786798222,"Higuera de la Serena, Badajoz, Extremadura, ESP"
06442,38.590595,-5.8483005859999,"Retamal de Llerena, Badajoz, Extremadura, ESP"
06443,38.50979,-5.800413497,"Campillo de Llerena, Badajoz, Extremadura, ESP"
06444,38.44343,-5.936641472,"Valencia de las Torres, Badajoz, Extremadura, ESP"
06445,38.324575,-5.9719547299999,"Higuera de Llerena, Badajoz, Extremadura, ESP"
06446,38.678651896,-5.6933099999999,"Zalamea de la Serena, Badajoz, Extremadura, ESP"
06450,38.76343,-5.7244655399999,"Quintana de la Serena, Badajoz, Extremadura, ESP"
06458,38.72183,-5.8352809149999,"Valle de la Serena, Badajoz, Extremadura, ESP"
06459,38.81513,-5.7102626559999,"Campanario, Badajoz, Extremadura, ESP"
06460,38.88046,-5.591254234,"Campanario, Badajoz, Extremadura, ESP"
06468,38.888955849,-5.7238849999999,"Magacela, Badajoz, Extremadura, ESP"
06469,38.936605,-5.648671131,"La Coronada, Badajoz, Extremadura, ESP"
06470,38.846295,-6.0603552969999,"Guareña, Badajoz, Extremadura, ESP"
06473,38.857553668,-6.18938,"Villagonzalo, Badajoz, Extremadura, ESP"
06474,38.89951,-6.0714588829999,"Valdetorres, Badajoz, Extremadura, ESP"
06475,38.747945,-6.0768148779999,"Oliva de Mérida, Badajoz, Extremadura, ESP"
06476,38.705305,-6.145698852,"Palomas, Badajoz, Extremadura, ESP"
06477,38.664585,-6.0797812279999,"Puebla de la Reina, Badajoz, Extremadura, ESP"
06478,38.786136166,-6.0101749999999,"Manchita, Badajoz, Extremadura, ESP"
06479,38.819335,-6.095481756,"Cristina, Badajoz, Extremadura, ESP"
06480,38.956255,-6.5805661109999,"Montijo, Badajoz, Extremadura, ESP"
06486,39.07264,-6.516330517,"La Nava de Santiago, Badajoz, Extremadura, ESP"
06487,39.141505,-6.4329183999999,"Cordobilla de Lácara, Badajoz, Extremadura, ESP"
06488,39.151185,-6.3464385209999,"Carmonita, Badajoz, Extremadura, ESP"
06489,38.940955,-6.559332871,"Montijo, Badajoz, Extremadura, ESP"
06490,38.878446995,-6.6278199999999,"Puebla de la Calzada, Badajoz, Extremadura, ESP"
06498,38.831275,-6.6022540339999,"Lobón, Badajoz, Extremadura, ESP"
06499,38.874555,-6.596756016,"Montijo, Badajoz, Extremadura, ESP"
06500,39.36071,-6.954756668,"San Vicente de Alcántara, Badajoz, Extremadura, ESP"
06510,39.164537282,-6.94776,"Alburquerque, Badajoz, Extremadura, ESP"
06518,39.22947,-7.193386512,"La Codosera, Badajoz, Extremadura, ESP"
06519,39.209905,-7.0937793269999,"Alburquerque, Badajoz, Extremadura, ESP"
06600,38.800601161,-5.27572,"Cabeza del Buey, Badajoz, Extremadura, ESP"
06610,38.827615,-5.1203801519999,"Peñalsordo, Badajoz, Extremadura, ESP"
06611,38.769105,-5.148097016,"Zarza-Capilla, Badajoz, Extremadura, ESP"
06612,38.785115,-5.019195512,"Capilla, Badajoz, Extremadura, ESP"
06613,38.663685,-5.379845254,"Benquerencia de la Serena, Badajoz, Extremadura, ESP"
06614,38.661126815,-5.2959915229999,"Cabeza del Buey, Badajoz, Extremadura, ESP"
06615,38.679315,-5.4040986319999,"Benquerencia de la Serena, Badajoz, Extremadura, ESP"
06620,38.955305,-5.3860177179999,"Esparragosa de Lares, Badajoz, Extremadura, ESP"
06630,39.077145319,-5.09306,"Puebla de Alcocer, Badajoz, Extremadura, ESP"
06640,39.099865,-5.1891827229999,"Talarrubias, Badajoz, Extremadura, ESP"
06650,38.98277,-5.0752521589999,"Siruela, Badajoz, Extremadura, ESP"
06655,38.92044,-5.1599294339999,"Sancti-Spíritus, Badajoz, Extremadura, ESP"
06656,38.89025,-4.9969765569999,"Garlitos, Badajoz, Extremadura, ESP"
06657,38.89252,-5.118646342,"Risco, Badajoz, Extremadura, ESP"
06658,38.987557531,-4.9520649999999,"Tamurejo, Badajoz, Extremadura, ESP"
06659,38.922695,-4.893347305,"Baterno, Badajoz, Extremadura, ESP"
06660,39.126397832,-4.9145599999999,"Fuenlabrada de los Montes, Badajoz, Extremadura, ESP"
06670,39.256051875,-5.00132,"Herrera del Duque, Badajoz, Extremadura, ESP"
06678,39.213355,-4.7826433889999,"Villarta de los Montes, Badajoz, Extremadura, ESP"
06679,39.18935,-5.142586159,"Herrera del Duque, Badajoz, Extremadura, ESP"
06680,39.308035,-5.0961628049999,"Castilblanco, Badajoz, Extremadura, ESP"
06689,39.26309,-5.200706322,"Valdecaballeros, Badajoz, Extremadura, ESP"
06690,39.078105,-4.999269639,"Garbayuela, Badajoz, Extremadura, ESP"
06691,39.390365152,-5.003545,"Alía, Cáceres, Extremadura, ESP"
06692,39.35402,-4.794471191,"Helechosa de los Montes, Badajoz, Extremadura, ESP"
06700,38.97345,-5.740415363,"Villanueva de la Serena, Badajoz, Extremadura, ESP"
06710,39.003947248,-5.745180191,"Villanueva de la Serena, Badajoz, Extremadura, ESP"
06711,39.02985,-5.6466598879999,"Don Benito, Badajoz, Extremadura, ESP"
06712,39.056915,-5.713724036,"Villanueva de la Serena, Badajoz, Extremadura, ESP"
06713,39.100985,-5.584031335,"Acedera, Badajoz, Extremadura, ESP"
06714,38.869419664,-5.7974599999999,"La Haba, Badajoz, Extremadura, ESP"
06715,39.053315,-5.816508128,"Rena, Badajoz, Extremadura, ESP"
06716,39.087695,-5.844824912,"Villar de Rena, Badajoz, Extremadura, ESP"
06717,39.11543,-5.7645563099999,"Villar de Rena, Badajoz, Extremadura, ESP"
06718,39.02238,-5.74425244,"Villanueva de la Serena, Badajoz, Extremadura, ESP"
06719,39.078535,-5.719369779,"Don Benito, Badajoz, Extremadura, ESP"
06720,39.027045,-5.7066203379999,"Villanueva de la Serena, Badajoz, Extremadura, ESP"
06730,39.109995,-5.5139958619999,"Navalvillar de Pela, Badajoz, Extremadura, ESP"
06731,39.159767215,-5.565465,"Navalvillar de Pela, Badajoz, Extremadura, ESP"
06740,39.018425001,-5.56013,"Orellana la Vieja, Badajoz, Extremadura, ESP"
06750,39.02039,-5.5050509179999,"Orellana de la Sierra, Badajoz, Extremadura, ESP"
06760,39.085179151,-5.4606199999999,"Navalvillar de Pela, Badajoz, Extremadura, ESP"
06770,39.128289257,-5.327525,"Casas de Don Pedro, Badajoz, Extremadura, ESP"
06800,39.02363,-6.4706762179999,"Mérida, Badajoz, Extremadura, ESP"
06810,38.874745814,-6.38107,"Calamonte, Badajoz, Extremadura, ESP"
06820,38.861775,-6.287247656,"Don Álvaro, Badajoz, Extremadura, ESP"
06830,38.810735,-6.2161120059999,"La Zarza, Badajoz, Extremadura, ESP"
06840,38.712675,-6.285818236,"Alange, Badajoz, Extremadura, ESP"
06850,38.839775,-6.453283868,"Arroyo de San Serván, Badajoz, Extremadura, ESP"
06860,38.946742324,-6.4378849999999,"Esparragalejo, Badajoz, Extremadura, ESP"
06870,38.933923726,-6.485425,"La Garrovilla, Badajoz, Extremadura, ESP"
06880,38.90839,-6.5489820239999,"Torremayor, Badajoz, Extremadura, ESP"
06890,38.90123,-6.232525708,"Valverde de Mérida, Badajoz, Extremadura, ESP"
06891,39.007314764,-6.2742549999999,"Mirandilla, Badajoz, Extremadura, ESP"
06892,38.95875,-6.2519866509999,"Trujillanos, Badajoz, Extremadura, ESP"
06893,38.959665,-6.189061409,"San Pedro de Mérida, Badajoz, Extremadura, ESP"
06894,39.041236318,-6.3365049999999,"Aljucén, Badajoz, Extremadura, ESP"
06900,38.23392,-6.042524042,"Llerena, Badajoz, Extremadura, ESP"
06906,38.08212,-6.07017941,"Puebla del Maestre, Badajoz, Extremadura, ESP"
06907,38.095345,-6.1554912189999,"Montemolín, Badajoz, Extremadura, ESP"
06908,38.018404613,-6.080905,"Montemolín, Badajoz, Extremadura, ESP"
06909,38.18825,-6.0007529059999,"Trasierra, Badajoz, Extremadura, ESP"
06910,38.341937568,-5.5925349999999,"Granja de Torrehermosa, Badajoz, Extremadura, ESP"
06919,38.4802,-5.588464178,"Peraleda del Zaucejo, Badajoz, Extremadura, ESP"
06920,38.281322804,-5.677185,"Azuaga, Badajoz, Extremadura, ESP"
06927,38.211934517,-5.8018499999999,"Valverde de Llerena, Badajoz, Extremadura, ESP"
06928,38.110374083,-5.711965,"Malcocinado, Badajoz, Extremadura, ESP"
06929,38.212654418,-5.57739,"Azuaga, Badajoz, Extremadura, ESP"
06930,38.280095,-5.8441606669999,"Berlanga, Badajoz, Extremadura, ESP"
06939,38.379275,-5.8578675689999,"Maguilla, Badajoz, Extremadura, ESP"
06940,38.249845,-5.8718775519999,"Ahillones, Badajoz, Extremadura, ESP"
06950,38.31306,-6.0809637419999,"Villagarcía de la Torre, Badajoz, Extremadura, ESP"
06960,38.227105,-5.934278676,"Casas de Reina, Badajoz, Extremadura, ESP"
06970,38.139372866,-6.0264125379999,"Reina, Badajoz, Extremadura, ESP"
06980,38.145363047,-5.91955,"Fuente del Arco, Badajoz, Extremadura, ESP"
07001,39.56799,2.650883182,"Palma, Islas Baleares, Islas Baleares, ESP"
07002,39.572769352,2.654275,"Palma, Islas Baleares, Islas Baleares, ESP"
07003,39.577091499,2.648465,"Palma, Islas Baleares, Islas Baleares, ESP"
07004,39.587829126,2.660335,"Palma, Islas Baleares, Islas Baleares, ESP"
07005,39.574994885,2.663485,"Palma, Islas Baleares, Islas Baleares, ESP"
07006,39.566495,2.660180633,"Palma, Islas Baleares, Islas Baleares, ESP"
07007,39.5648,2.6932531730001,"Palma, Islas Baleares, Islas Baleares, ESP"
07008,39.584215,2.679004386,"Palma, Islas Baleares, Islas Baleares, ESP"
07009,39.60178,2.6708365850001,"Palma, Islas Baleares, Islas Baleares, ESP"
07010,39.611648815,2.6310550000001,"Palma, Islas Baleares, Islas Baleares, ESP"
07011,39.60412,2.612176963,"Palma, Islas Baleares, Islas Baleares, ESP"
07012,39.568265,2.6447975730001,"Palma, Islas Baleares, Islas Baleares, ESP"
07013,39.587595,2.5956260570001,"Palma, Islas Baleares, Islas Baleares, ESP"
07014,39.569835588,2.6178607960001,"Palma, Islas Baleares, Islas Baleares, ESP"
07015,39.55835,2.6036749300001,"Palma, Islas Baleares, Islas Baleares, ESP"
07101,39.763925,2.743267002,"Sóller, Islas Baleares, Islas Baleares, ESP"
07120,39.633963212,2.663555,"Palma, Islas Baleares, Islas Baleares, ESP"
07121,39.63429,2.635660462,"Palma, Islas Baleares, Islas Baleares, ESP"
07122,39.64033,2.64267725,"Palma, Islas Baleares, Islas Baleares, ESP"
07141,39.620615,2.7340609940001,"Marratxí, Islas Baleares, Islas Baleares, ESP"
07142,39.623050764,2.8375550000001,"Santa Eugènia, Islas Baleares, Islas Baleares, ESP"
07143,39.641654233,2.8595050000001,"Sencelles, Islas Baleares, Islas Baleares, ESP"
07150,39.58947,2.4294785610001,"Andratx, Islas Baleares, Islas Baleares, ESP"
07159,39.584687389,2.3877400000001,"Andratx, Islas Baleares, Islas Baleares, ESP"
07179,39.747865,2.6490909230001,"Deià, Islas Baleares, Islas Baleares, ESP"
07181,39.543002483,2.5427300000001,"Calvià, Islas Baleares, Islas Baleares, ESP"
07191,39.67786,2.5283951860001,"Banyalbufar, Islas Baleares, Islas Baleares, ESP"
07198,39.576155,2.7214806380001,"Palma, Islas Baleares, Islas Baleares, ESP"
07199,39.560695,2.794828438,"Palma, Islas Baleares, Islas Baleares, ESP"
07210,39.56497,2.900542009,"Algaida, Islas Baleares, Islas Baleares, ESP"
07311,39.76026,2.984412516,"Búger, Islas Baleares, Islas Baleares, ESP"
07340,39.727556608,2.803955,"Alaró, Islas Baleares, Islas Baleares, ESP"
07350,39.68448,2.8631599140001,"Binissalem, Islas Baleares, Islas Baleares, ESP"
07369,39.733055,2.8700578410001,"Selva, Islas Baleares, Islas Baleares, ESP"
07400,39.84611,3.1159731120001,"Alcúdia, Islas Baleares, Islas Baleares, ESP"
07470,39.899815,3.073044817,"Pollença, Islas Baleares, Islas Baleares, ESP"
07520,39.612253038,3.158425,"Petra, Islas Baleares, Islas Baleares, ESP"
07529,39.6629,3.1538137210001,"Ariany, Islas Baleares, Islas Baleares, ESP"
07560,39.593020707,3.3820000000001,"Sant Llorenç des Cardassar, Islas Baleares, Islas Baleares, ESP"
07570,39.71452,3.312745975,"Artà, Islas Baleares, Islas Baleares, ESP"
07579,39.73511,3.2762600070001,"Artà, Islas Baleares, Islas Baleares, ESP"
07600,39.459540705,2.8232265,"Llucmajor, Islas Baleares, Islas Baleares, ESP"
07609,39.446400488,2.760495,"Llucmajor, Islas Baleares, Islas Baleares, ESP"
07610,39.534494077,2.734185,"Palma, Islas Baleares, Islas Baleares, ESP"
07611,39.548165,2.728565173,"Palma, Islas Baleares, Islas Baleares, ESP"
07691,39.362175,3.2067306590001,"Santanyí, Islas Baleares, Islas Baleares, ESP"
07700,39.94154,4.2414844730001,"Maó, Islas Baleares, Islas Baleares, ESP"
07701,39.8912775,4.2541177520001,"Maó, Islas Baleares, Islas Baleares, ESP"
07702,39.875647,4.263617159,"Maó, Islas Baleares, Islas Baleares, ESP"
07703,39.883374268,4.2583500000001,"Maó, Islas Baleares, Islas Baleares, ESP"
07710,39.852006364,4.2587,"Sant Lluís, Islas Baleares, Islas Baleares, ESP"
07711,39.837575,4.2317117740001,"Sant Lluís, Islas Baleares, Islas Baleares, ESP"
07712,39.872495,4.2082324410001,"Maó, Islas Baleares, Islas Baleares, ESP"
07713,39.832185,4.279677393,"Sant Lluís, Islas Baleares, Islas Baleares, ESP"
07714,39.88618,4.242180623,"Maó, Islas Baleares, Islas Baleares, ESP"
07730,39.914915,4.1300469610001,"Alaior, Islas Baleares, Islas Baleares, ESP"
07800,38.909875,1.422043144,"Ibiza, Islas Baleares, Islas Baleares, ESP"
07817,38.897056538,1.37147,"Sant Josep de sa Talaia, Islas Baleares, Islas Baleares, ESP"
